GLOBALSTAR M075         
1 37192U 10054E   25105.47650904 -.00000070  00000+0  18877-3 0  9991
2 37192  51.9976  12.4752 0000624  77.3031 104.9068 12.62263522667924
GLOBALSTAR M073         
1 37193U 10054F   25105.52714225 -.00000085  00000+0  10551-3 0  9992
2 37193  52.0057 286.0961 0000807 111.3134 299.5030 12.62270542669971
GLOBALSTAR M083         
1 37739U 11033A   25105.54661819 -.00000081  00000+0  12612-3 0  9994
2 37739  51.9852 234.8510 0000825 109.8632 330.3570 12.62262812638941
GLOBALSTAR M091         
1 37741U 11033C   25105.28373633 -.00000103  00000+0  32860-5 0  9996
2 37741  51.9977 104.6371 0000540  80.9825 304.1827 12.62267067635249
GLOBALSTAR M081         
1 37743U 11033E   25105.64941844 -.00000111  00000+0 -41219-4 0  9990
2 37743  51.9966  57.3644 0000573  91.0041  96.6796 12.62262680635946
GLOBALSTAR M089         
1 37744U 11033F   25105.45037223 -.00000073  00000+0  17034-3 0  9990
2 37744  51.9962  12.2117 0000418  80.3107 102.9777 12.62268664636769
